{"type": "FeatureCollection", "features": [ {"type": "Feature", "properties": {"norad_id": 67048, "name": "STARLINK-35905", "group": "last-30-days", "lat": 37.12357186338896, "lon": -161.06861654116008, "alt_km": 287.64306978281274, "timestamp": "2025-12-18T21:31:49.702371+00:00", "meta": {"OBJECT_NAME": "STARLINK-35905", "OBJECT_ID": "2025-294U", "EPOCH": "2025-12-17T20:00:01.999872", "MEAN_MOTION": 15.96281015, "ECCENTRICITY": 0.00017421, "INCLINATION": 43.0002, "RA_OF_ASC_NODE": 151.2544, "ARG_OF_PERICENTER": 278.8328, "MEAN_ANOMALY": 148.3106, "EPHEMERIS_TYPE": 0, "CLASSIFICATION_TYPE": "U", "NORAD_CAT_ID": 67048, "ELEMENT_SET_NO": 999, "REV_AT_EPOCH": 212, "BSTAR": -0.0032043304, "MEAN_MOTION_DOT": -0.0138222, "MEAN_MOTION_DDOT": 0.00056988515}, "tle": {"line1": "1 67048U 25294U   25351.83335648 -.01382220  56989-3 -32043-2 0  9997", "line2": "2 67048  43.0002 151.2544 0001742 278.8328 148.3106 15.96281015  2126"}}, "geometry": {"type": "Point", "coordinates": [-161.06861654116008, 37.12357186338896]}}, {"type": "Feature", "properties": {"norad_id": 67049, "name": "STARLINK-35877", "group": "last-30-days", "lat": 37.9107383002687, "lon": -158.7029424092961, "alt_km": 287.35443259114345, "timestamp": "2025-12-18T21:31:49.702381+00:00", "meta": {"OBJECT_NAME": "STARLINK-35877", "OBJECT_ID": "2025-294V", "EPOCH": "2025-12-17T20:00:01.999872", "MEAN_MOTION": 15.96379091, "ECCENTRICITY": 0.00017984, "INCLINATION": 43.0004, "RA_OF_ASC_NODE": 151.2501, "ARG_OF_PERICENTER": 278.7397, "MEAN_ANOMALY": 150.087, "EPHEMERIS_TYPE": 0, "CLASSIFICATION_TYPE": "U", "NORAD_CAT_ID": 67049, "ELEMENT_SET_NO": 999, "REV_AT_EPOCH": 212, "BSTAR": -0.0032020066, "MEAN_MOTION_DOT": -0.01388599, "MEAN_MOTION_DDOT": 0.00057529194}, "tle": {"line1": "1 67049U 25294V   25351.83335648 -.01388599  57529-3 -32020-2 0  9999", "line2": "2 67049  43.0004 151.2501 0001798 278.7397 150.0870 15.96379091  2128"}}, "geometry": {"type": "Point", "coordinates": [-158.7029424092961, 37.9107383002687]}}, {"type": "Feature", "properties": {"norad_id": 67050, "name": "STARLINK-36078", "group": "last-30-days", "lat": 38.6575106347744, "lon": -156.25855262440714, "alt_km": 287.04839155425543, "timestamp": "2025-12-18T21:31:49.702391+00:00", "meta": {"OBJECT_NAME": "STARLINK-36078", "OBJECT_ID": "2025-294W", "EPOCH": "2025-12-17T20:00:01.999872", "MEAN_MOTION": 15.96482561, "ECCENTRICITY": 0.00016892, "INCLINATION": 43.0003, "RA_OF_ASC_NODE": 151.2459, "ARG_OF_PERICENTER": 276.0563, "MEAN_ANOMALY": 154.4712, "EPHEMERIS_TYPE": 0, "CLASSIFICATION_TYPE": "U", "NORAD_CAT_ID": 67050, "ELEMENT_SET_NO": 999, "REV_AT_EPOCH": 212, "BSTAR": -0.003205983, "MEAN_MOTION_DOT": -0.01398096, "MEAN_MOTION_DDOT": 0.00058314372}, "tle": {"line1": "1 67050U 25294W   25351.83335648 -.01398096  58314-3 -32060-2 0  9991", "line2": "2 67050  43.0003 151.2459 0001689 276.0563 154.4712 15.96482561  2126"}}, "geometry": {"type": "Point", "coordinates": [-156.25855262440714, 38.6575106347744]}}, {"type": "Feature", "properties": {"norad_id": 67051, "name": "STARLINK-35706", "group": "last-30-days", "lat": 39.357114284633326, "lon": -153.7464269579143, "alt_km": 286.65578710159934, "timestamp": "2025-12-18T21:31:49.702401+00:00", "meta": {"OBJECT_NAME": "STARLINK-35706", "OBJECT_ID": "2025-294X", "EPOCH": "2025-12-17T20:00:01.999872", "MEAN_MOTION": 15.96577558, "ECCENTRICITY": 0.00017621, "INCLINATION": 43.0004, "RA_OF_ASC_NODE": 151.2416, "ARG_OF_PERICENTER": 280.3512, "MEAN_ANOMALY": 151.8911, "EPHEMERIS_TYPE": 0, "CLASSIFICATION_TYPE": "U", "NORAD_CAT_ID": 67051, "ELEMENT_SET_NO": 999, "REV_AT_EPOCH": 212, "BSTAR": -0.0031937345, "MEAN_MOTION_DOT": -0.01400037, "MEAN_MOTION_DDOT": 0.00058519778}, "tle": {"line1": "1 67051U 25294X   25351.83335648 -.01400037  58520-3 -31937-2 0  9992", "line2": "2 67051  43.0004 151.2416 0001762 280.3512 151.8911 15.96577558  2128"}}, "geometry": {"type": "Point", "coordinates": [-153.7464269579143, 39.357114284633326]}}, {"type": "Feature", "properties": {"norad_id": 67052, "name": "STARLINK-35720", "group": "last-30-days", "lat": 39.85649122941802, "lon": -151.78558840156032, "alt_km": 286.35036608450264, "timestamp": "2025-12-18T21:31:49.702413+00:00", "meta": {"OBJECT_NAME": "STARLINK-35720", "OBJECT_ID": "2025-294Y", "EPOCH": "2025-12-17T20:00:01.999872", "MEAN_MOTION": 15.96650748, "ECCENTRICITY": 0.00017847, "INCLINATION": 43.0004, "RA_OF_ASC_NODE": 151.2383, "ARG_OF_PERICENTER": 283.0487, "MEAN_ANOMALY": 150.5069, "EPHEMERIS_TYPE": 0, "CLASSIFICATION_TYPE": "U", "NORAD_CAT_ID": 67052, "ELEMENT_SET_NO": 999, "REV_AT_EPOCH": 212, "BSTAR": -0.0031831494, "MEAN_MOTION_DOT": -0.01401019, "MEAN_MOTION_DDOT": 0.00058638999}, "tle": {"line1": "1 67052U 25294Y   25351.83335648 -.01401019  58639-3 -31831-2 0  9998", "line2": "2 67052  43.0004 151.2383 0001784 283.0487 150.5069 15.96650748  2120"}}, "geometry": {"type": "Point", "coordinates": [-151.78558840156032, 39.85649122941802]}}, {"type": "Feature", "properties": {"norad_id": 67053, "name": "STARLINK-35739", "group": "last-30-days", "lat": 40.401402256041, "lon": -149.4411640124909, "alt_km": 286.1786522416305, "timestamp": "2025-12-18T21:31:49.702423+00:00", "meta": {"OBJECT_NAME": "STARLINK-35739", "OBJECT_ID": "2025-294Z", "EPOCH": "2025-12-17T20:00:01.999872", "MEAN_MOTION": 15.96745544, "ECCENTRICITY": 0.0001692, "INCLINATION": 43.0004, "RA_OF_ASC_NODE": 151.234, "ARG_OF_PERICENTER": 277.5416, "MEAN_ANOMALY": 157.5684, "EPHEMERIS_TYPE": 0, "CLASSIFICATION_TYPE": "U", "NORAD_CAT_ID": 67053, "ELEMENT_SET_NO": 999, "REV_AT_EPOCH": 212, "BSTAR": -0.0031909075, "MEAN_MOTION_DOT": -0.01411628, "MEAN_MOTION_DDOT": 0.00059513953}, "tle": {"line1": "1 67053U 25294Z   25351.83335648 -.01411628  59514-3 -31909-2 0  9995", "line2": "2 67053  43.0004 151.2340 0001692 277.5416 157.5684 15.96745544  2121"}}, "geometry": {"type": "Point", "coordinates": [-149.4411640124909, 40.401402256041]}}, {"type": "Feature", "properties": {"norad_id": 67054, "name": "STARLINK-35754", "group": "last-30-days", "lat": 40.964366766104895, "lon": -146.71875009022466, "alt_km": 285.834699062194, "timestamp": "2025-12-18T21:31:49.702433+00:00", "meta": {"OBJECT_NAME": "STARLINK-35754", "OBJECT_ID": "2025-294AA", "EPOCH": "2025-12-17T20:00:01.999872", "MEAN_MOTION": 15.96848291, "ECCENTRICITY": 0.00017442, "INCLINATION": 43.0003, "RA_OF_ASC_NODE": 151.2298, "ARG_OF_PERICENTER": 280.2181, "MEAN_ANOMALY": 156.6527, "EPHEMERIS_TYPE": 0, "CLASSIFICATION_TYPE": "U", "NORAD_CAT_ID": 67054, "ELEMENT_SET_NO": 999, "REV_AT_EPOCH": 212, "BSTAR": -0.003182623, "MEAN_MOTION_DOT": -0.0141592, "MEAN_MOTION_DDOT": 0.00059909539}, "tle": {"line1": "1 67054U 25294AA  25351.83335648 -.01415920  59910-3 -31826-2 0  9993", "line2": "2 67054  43.0003 151.2298 0001744 280.2181 156.6527 15.96848291  2120"}}, "geometry": {"type": "Point", "coordinates": [-146.71875009022466, 40.964366766104895]}}, {"type": "Feature", "properties": {"norad_id": 67055, "name": "STARLINK-35790", "group": "last-30-days", "lat": 41.438320592074916, "lon": -144.09311664749936, "alt_km": 285.54598022711707, "timestamp": "2025-12-18T21:31:49.702445+00:00", "meta": {"OBJECT_NAME": "STARLINK-35790", "OBJECT_ID": "2025-294AB", "EPOCH": "2025-12-17T20:00:01.999872", "MEAN_MOTION": 15.96946171, "ECCENTRICITY": 0.00017268, "INCLINATION": 43, "RA_OF_ASC_NODE": 151.2252, "ARG_OF_PERICENTER": 279.7443, "MEAN_ANOMALY": 158.8001, "EPHEMERIS_TYPE": 0, "CLASSIFICATION_TYPE": "U", "NORAD_CAT_ID": 67055, "ELEMENT_SET_NO": 999, "REV_AT_EPOCH": 212, "BSTAR": -0.0031750688, "MEAN_MOTION_DOT": -0.01420154, "MEAN_MOTION_DDOT": 0.00060299332}, "tle": {"line1": "1 67055U 25294AB  25351.83335648 -.01420154  60299-3 -31751-2 0  9998", "line2": "2 67055  43.0000 151.2252 0001726 279.7443 158.8001 15.96946171  2129"}}, "geometry": {"type": "Point", "coordinates": [-144.09311664749936, 41.438320592074916]}}, {"type": "Feature", "properties": {"norad_id": 67056, "name": "STARLINK-36143", "group": "last-30-days", "lat": 42.34579295278696, "lon": -137.45985654191813, "alt_km": 284.8493332046655, "timestamp": "2025-12-18T21:31:49.702457+00:00", "meta": {"OBJECT_NAME": "STARLINK-36143", "OBJECT_ID": "2025-294AC", "EPOCH": "2025-12-17T20:00:01.999872", "MEAN_MOTION": 15.97193848, "ECCENTRICITY": 0.00016135, "INCLINATION": 43, "RA_OF_ASC_NODE": 151.2146, "ARG_OF_PERICENTER": 277.5348, "MEAN_ANOMALY": 165.145, "EPHEMERIS_TYPE": 0, "CLASSIFICATION_TYPE": "U", "NORAD_CAT_ID": 67056, "ELEMENT_SET_NO": 999, "REV_AT_EPOCH": 212, "BSTAR": -0.0031688352, "MEAN_MOTION_DOT": -0.01436678, "MEAN_MOTION_DDOT": 0.00061750931}, "tle": {"line1": "1 67056U 25294AC  25351.83335648 -.01436678  61751-3 -31688-2 0  9990", "line2": "2 67056  43.0000 151.2146 0001613 277.5348 165.1450 15.97193848  2122"}}, "geometry": {"type": "Point", "coordinates": [-137.45985654191813, 42.34579295278696]}}, {"type": "Feature", "properties": {"norad_id": 67057, "name": "STARLINK-36141", "group": "last-30-days", "lat": 42.071378141750245, "lon": -139.80651835697046, "alt_km": 285.0899664234639, "timestamp": "2025-12-18T21:31:49.702467+00:00", "meta": {"OBJECT_NAME": "STARLINK-36141", "OBJECT_ID": "2025-294AD", "EPOCH": "2025-12-17T20:00:01.999872", "MEAN_MOTION": 15.97103667, "ECCENTRICITY": 0.0001695, "INCLINATION": 43, "RA_OF_ASC_NODE": 151.2187, "ARG_OF_PERICENTER": 278.4975, "MEAN_ANOMALY": 162.7217, "EPHEMERIS_TYPE": 0, "CLASSIFICATION_TYPE": "U", "NORAD_CAT_ID": 67057, "ELEMENT_SET_NO": 999, "REV_AT_EPOCH": 212, "BSTAR": -0.0031578497, "MEAN_MOTION_DOT": -0.01424736, "MEAN_MOTION_DDOT": 0.00060755526}, "tle": {"line1": "1 67057U 25294AD  25351.83335648 -.01424736  60756-3 -31578-2 0  9995", "line2": "2 67057  43.0000 151.2187 0001695 278.4975 162.7217 15.97103667  2128"}}, "geometry": {"type": "Point", "coordinates": [-139.80651835697046, 42.071378141750245]}}]}